GLOBALSTAR M084         
1 38040U 11080A   25155.58442196 -.00000090  00000+0  77477-4 0  9997
2 38040  52.0009  86.8397 0000796  34.8737 135.6980 12.62266539621078
GLOBALSTAR M080         
1 38041U 11080B   25155.23404965 -.00000094  00000+0  54872-4 0  9990
2 38041  52.0060  89.4933 0000725  90.6939  56.7846 12.62263279621158
GLOBALSTAR M082         
1 38042U 11080C   25155.09133853 -.00000090  00000+0  75472-4 0  9995
2 38042  52.0095  45.3882 0000855  97.9910  51.1188 12.62266383621847
GLOBALSTAR M092         
1 38043U 11080D   25155.45962447 -.00000091  00000+0  72365-4 0  9994
2 38043  52.0061 134.6426 0000308  41.5195 102.0353 12.62264320620343
GLOBALSTAR M090         
1 38044U 11080E   25155.43914620 -.00000096  00000+0  41797-4 0  9993
2 38044  52.0143  38.1618 0000694  84.9437  86.1374 12.62273343622009
GLOBALSTAR M097         
1 39072U 13005A   25155.45437176 -.00000087  00000+0  93570-4 0  9998
2 39072  52.0059 313.1906 0000621 118.9095 241.1834 12.62272408569208
GLOBALSTAR M093         
1 39073U 13005B   25155.58631761 -.00000080  00000+0  13477-3 0  9999
2 39073  51.9822 306.1119 0000674 124.5945 235.4986 12.62265157569171
